[{"OBJECT_NAME":"STARLINK-32270","OBJECT_ID":"2024-138K","EPOCH":"2025-09-06T19:30:43.663104","MEAN_MOTION":15.30198869,"ECCENTRICITY":0.0001201,"INCLINATION":53.1597,"RA_OF_ASC_NODE":83.8088,"ARG_OF_PERICENTER":80.8063,"MEAN_ANOMALY":279.3074,"EPHEMERIS_TYPE":0,"CLASSIFICATION_TYPE":"U","NORAD_CAT_ID":60364,"ELEMENT_SET_NO":999,"REV_AT_EPOCH":6237,"BSTAR":-2.2495734e-5,"MEAN_MOTION_DOT":-1.025e-5,"MEAN_MOTION_DDOT":0},{"OBJECT_NAME":"STARLINK-32188","OBJECT_ID":"2024-138L","EPOCH":"2025-09-06T19:21:36.594720","MEAN_MOTION":15.30193108,"ECCENTRICITY":9.194e-5,"INCLINATION":53.1597,"RA_OF_ASC_NODE":83.7685,"ARG_OF_PERICENTER":83.6233,"MEAN_ANOMALY":276.4872,"EPHEMERIS_TYPE":0,"CLASSIFICATION_TYPE":"U","NORAD_CAT_ID":60365,"ELEMENT_SET_NO":999,"REV_AT_EPOCH":6247,"BSTAR":-5.5167987e-5,"MEAN_MOTION_DOT":-1.992e-5,"MEAN_MOTION_DDOT":0},{"OBJECT_NAME":"STARLINK-32230","OBJECT_ID":"2024-138M","EPOCH":"2025-09-06T19:39:50.188896","MEAN_MOTION":15.30206727,"ECCENTRICITY":0.00010882,"INCLINATION":53.1603,"RA_OF_ASC_NODE":83.8491,"ARG_OF_PERICENTER":83.0493,"MEAN_ANOMALY":277.0632,"EPHEMERIS_TYPE":0,"CLASSIFICATION_TYPE":"U","NORAD_CAT_ID":60366,"ELEMENT_SET_NO":999,"REV_AT_EPOCH":6247,"BSTAR":3.486427e-6,"MEAN_MOTION_DOT":-2.56e-6,"MEAN_MOTION_DDOT":0},{"OBJECT_NAME":"STARLINK-32243","OBJECT_ID":"2024-138N","EPOCH":"2025-09-06T19:24:39.640896","MEAN_MOTION":15.30191312,"ECCENTRICITY":0.00012286,"INCLINATION":53.1607,"RA_OF_ASC_NODE":83.7771,"ARG_OF_PERICENTER":105.9866,"MEAN_ANOMALY":254.1271,"EPHEMERIS_TYPE":0,"CLASSIFICATION_TYPE":"U","NORAD_CAT_ID":60367,"ELEMENT_SET_NO":999,"REV_AT_EPOCH":6247,"BSTAR":-5.761323e-6,"MEAN_MOTION_DOT":-5.3e-6,"MEAN_MOTION_DDOT":0},{"OBJECT_NAME":"STARLINK-32271","OBJECT_ID":"2024-138P","EPOCH":"2025-09-06T19:53:30.810048","MEAN_MOTION":15.30207444,"ECCENTRICITY":9.666e-5,"INCLINATION":53.16,"RA_OF_ASC_NODE":83.9071,"ARG_OF_PERICENTER":84.4193,"MEAN_ANOMALY":275.6918,"EPHEMERIS_TYPE":0,"CLASSIFICATION_TYPE":"U","NORAD_CAT_ID":60368,"ELEMENT_SET_NO":999,"REV_AT_EPOCH":6247,"BSTAR":2.161196e-6,"MEAN_MOTION_DOT":-2.95e-6,"MEAN_MOTION_DDOT":0},{"OBJECT_NAME":"STARLINK-32266","OBJECT_ID":"2024-138Q","EPOCH":"2025-09-06T18:44:27.281184","MEAN_MOTION":15.30196893,"ECCENTRICITY":0.00011361,"INCLINATION":53.1607,"RA_OF_ASC_NODE":71.3187,"ARG_OF_PERICENTER":84.0964,"MEAN_ANOMALY":276.0167,"EPHEMERIS_TYPE":0,"CLASSIFICATION_TYPE":"U","NORAD_CAT_ID":60369,"ELEMENT_SET_NO":999,"REV_AT_EPOCH":6264,"BSTAR":1.939828e-5,"MEAN_MOTION_DOT":2.15e-6,"MEAN_MOTION_DDOT":0},{"OBJECT_NAME":"STARLINK-32220","OBJECT_ID":"2024-138R","EPOCH":"2025-09-06T19:33:45.777888","MEAN_MOTION":15.30209999,"ECCENTRICITY":0.00011755,"INCLINATION":53.1587,"RA_OF_ASC_NODE":83.8196,"ARG_OF_PERICENTER":80.9402,"MEAN_ANOMALY":279.1732,"EPHEMERIS_TYPE":0,"CLASSIFICATION_TYPE":"U","NORAD_CAT_ID":60370,"ELEMENT_SET_NO":999,"REV_AT_EPOCH":6247,"BSTAR":5.2128538e-5,"MEAN_MOTION_DOT":1.185e-5,"MEAN_MOTION_DDOT":0},{"OBJECT_NAME":"STARLINK-32263","OBJECT_ID":"2024-138S","EPOCH":"2025-09-06T20:10:04.094688","MEAN_MOTION":15.30202707,"ECCENTRICITY":0.00011147,"INCLINATION":53.1573,"RA_OF_ASC_NODE":83.2653,"ARG_OF_PERICENTER":97.9517,"MEAN_ANOMALY":262.161,"EPHEMERIS_TYPE":0,"CLASSIFICATION_TYPE":"U","NORAD_CAT_ID":60371,"ELEMENT_SET_NO":999,"REV_AT_EPOCH":6238,"BSTAR":5.7849136e-5,"MEAN_MOTION_DOT":1.355e-5,"MEAN_MOTION_DDOT":0},{"OBJECT_NAME":"STARLINK-32268","OBJECT_ID":"2024-138T","EPOCH":"2025-09-06T19:55:02.152128","MEAN_MOTION":15.30205448,"ECCENTRICITY":7.389e-5,"INCLINATION":53.1577,"RA_OF_ASC_NODE":83.9134,"ARG_OF_PERICENTER":94.6459,"MEAN_ANOMALY":265.4626,"EPHEMERIS_TYPE":0,"CLASSIFICATION_TYPE":"U","NORAD_CAT_ID":60372,"ELEMENT_SET_NO":999,"REV_AT_EPOCH":6247,"BSTAR":0.00020801594,"MEAN_MOTION_DOT":5.808e-5,"MEAN_MOTION_DDOT":0},{"OBJECT_NAME":"STARLINK-32223","OBJECT_ID":"2024-138U","EPOCH":"2025-09-06T19:26:10.947552","MEAN_MOTION":15.30200249,"ECCENTRICITY":0.00011347,"INCLINATION":53.1588,"RA_OF_ASC_NODE":83.7872,"ARG_OF_PERICENTER":69.5994,"MEAN_ANOMALY":290.5129,"EPHEMERIS_TYPE":0,"CLASSIFICATION_TYPE":"U","NORAD_CAT_ID":60373,"ELEMENT_SET_NO":999,"REV_AT_EPOCH":6237,"BSTAR":2.2564437e-5,"MEAN_MOTION_DOT":3.09e-6,"MEAN_MOTION_DDOT":0},{"OBJECT_NAME":"STARLINK-32180","OBJECT_ID":"2024-138V","EPOCH":"2025-09-06T19:29:12.162048","MEAN_MOTION":15.30205141,"ECCENTRICITY":9.719e-5,"INCLINATION":53.1598,"RA_OF_ASC_NODE":83.7988,"ARG_OF_PERICENTER":77.8005,"MEAN_ANOMALY":282.3105,"EPHEMERIS_TYPE":0,"CLASSIFICATION_TYPE":"U","NORAD_CAT_ID":60374,"ELEMENT_SET_NO":999,"REV_AT_EPOCH":6247,"BSTAR":4.608574e-5,"MEAN_MOTION_DOT":1.006e-5,"MEAN_MOTION_DDOT":0},{"OBJECT_NAME":"STARLINK-32281","OBJECT_ID":"2024-138W","EPOCH":"2025-09-06T18:49:41.461824","MEAN_MOTION":15.30203224,"ECCENTRICITY":0.00013914,"INCLINATION":53.1596,"RA_OF_ASC_NODE":83.6277,"ARG_OF_PERICENTER":82.0842,"MEAN_ANOMALY":278.0317,"EPHEMERIS_TYPE":0,"CLASSIFICATION_TYPE":"U","NORAD_CAT_ID":60375,"ELEMENT_SET_NO":999,"REV_AT_EPOCH":6237,"BSTAR":-1.91469e-7,"MEAN_MOTION_DOT":-3.65e-6,"MEAN_MOTION_DDOT":0},{"OBJECT_NAME":"STARLINK-32277","OBJECT_ID":"2024-138X","EPOCH":"2025-09-06T19:38:18.784608","MEAN_MOTION":15.30210752,"ECCENTRICITY":9.624e-5,"INCLINATION":53.1605,"RA_OF_ASC_NODE":83.8361,"ARG_OF_PERICENTER":75.4385,"MEAN_ANOMALY":284.6722,"EPHEMERIS_TYPE":0,"CLASSIFICATION_TYPE":"U","NORAD_CAT_ID":60376,"ELEMENT_SET_NO":999,"REV_AT_EPOCH":6247,"BSTAR":4.8320812e-5,"MEAN_MOTION_DOT":1.073e-5,"MEAN_MOTION_DDOT":0},{"OBJECT_NAME":"STARLINK-32269","OBJECT_ID":"2024-138Y","EPOCH":"2025-09-06T19:15:31.502880","MEAN_MOTION":15.30200954,"ECCENTRICITY":0.00010321,"INCLINATION":53.1596,"RA_OF_ASC_NODE":83.7376,"ARG_OF_PERICENTER":79.4783,"MEAN_ANOMALY":280.6334,"EPHEMERIS_TYPE":0,"CLASSIFICATION_TYPE":"U","NORAD_CAT_ID":60377,"ELEMENT_SET_NO":999,"REV_AT_EPOCH":6247,"BSTAR":-1.9945829e-5,"MEAN_MOTION_DOT":-9.5e-6,"MEAN_MOTION_DDOT":0},{"OBJECT_NAME":"STARLINK-11228 [DTC]","OBJECT_ID":"2024-141A","EPOCH":"2025-09-06T08:57:10.984320","MEAN_MOTION":15.6971301,"ECCENTRICITY":0.00015521,"INCLINATION":53.1583,"RA_OF_ASC_NODE":274.8965,"ARG_OF_PERICENTER":65.2637,"MEAN_ANOMALY":294.8542,"EPHEMERIS_TYPE":0,"CLASSIFICATION_TYPE":"U","NORAD_CAT_ID":60398,"ELEMENT_SET_NO":999,"REV_AT_EPOCH":6274,"BSTAR":7.152818e-6,"MEAN_MOTION_DOT":2.77e-6,"MEAN_MOTION_DDOT":0},{"OBJECT_NAME":"STARLINK-11182 [DTC]","OBJECT_ID":"2024-141B","EPOCH":"2025-09-06T11:39:20.709504","MEAN_MOTION":15.69714294,"ECCENTRICITY":0.00014671,"INCLINATION":53.1593,"RA_OF_ASC_NODE":274.1721,"ARG_OF_PERICENTER":77.1259,"MEAN_ANOMALY":282.9923,"EPHEMERIS_TYPE":0,"CLASSIFICATION_TYPE":"U","NORAD_CAT_ID":60399,"ELEMENT_SET_NO":999,"REV_AT_EPOCH":6281,"BSTAR":3.5827212e-5,"MEAN_MOTION_DOT":3.754e-5,"MEAN_MOTION_DDOT":0}]
