STARLINK-32270          
1 60364U 24138K   25249.81300536 -.00001025  00000+0 -22496-4 0  9991
2 60364  53.1597  83.8088 0001201  80.8063 279.3074 15.30198869 62375
STARLINK-32188          
1 60365U 24138L   25249.80667355 -.00001992  00000+0 -55168-4 0  9991
2 60365  53.1597  83.7685 0000919  83.6233 276.4872 15.30193108 62479
STARLINK-32230          
1 60366U 24138M   25249.81933089 -.00000256  00000+0  34864-5 0  9995
2 60366  53.1603  83.8491 0001088  83.0493 277.0632 15.30206727 62477
STARLINK-32243          
1 60367U 24138N   25249.80879214 -.00000530  00000+0 -57613-5 0  9997
2 60367  53.1607  83.7771 0001228 105.9866 254.1271 15.30191312 62474
STARLINK-32271          
1 60368U 24138P   25249.82882882 -.00000295  00000+0  21612-5 0  9992
2 60368  53.1600  83.9071 0000966  84.4193 275.6918 15.30207444 62475
STARLINK-32266          
1 60369U 24138Q   25249.78087131  .00000215  00000+0  19398-4 0  9990
2 60369  53.1607  71.3187 0001136  84.0964 276.0167 15.30196893 62649
STARLINK-32220          
1 60370U 24138R   25249.81511317  .00001185  00000+0  52129-4 0  9990
2 60370  53.1587  83.8196 0001175  80.9402 279.1732 15.30209999 62476
STARLINK-32263          
1 60371U 24138S   25249.84032517  .00001355  00000+0  57849-4 0  9997
2 60371  53.1573  83.2653 0001114  97.9517 262.1610 15.30202707 62389
STARLINK-32268          
1 60372U 24138T   25249.82988602  .00005808  00000+0  20802-3 0  9996
2 60372  53.1577  83.9134 0000738  94.6459 265.4626 15.30205448 62473
STARLINK-32223          
1 60373U 24138U   25249.80984893  .00000309  00000+0  22564-4 0  9992
2 60373  53.1588  83.7872 0001134  69.5994 290.5129 15.30200249 62379
STARLINK-32180          
1 60374U 24138V   25249.81194632  .00001006  00000+0  46086-4 0  9998
2 60374  53.1598  83.7988 0000971  77.8005 282.3105 15.30205141 62472
STARLINK-32281          
1 60375U 24138W   25249.78450766 -.00000365  00000+0 -19147-6 0  9997
2 60375  53.1596  83.6277 0001391  82.0842 278.0317 15.30203224 62371
STARLINK-32277          
1 60376U 24138X   25249.81827297  .00001073  00000+0  48321-4 0  9998
2 60376  53.1605  83.8361 0000962  75.4385 284.6722 15.30210752 62478
STARLINK-32269          
1 60377U 24138Y   25249.80244795 -.00000950  00000+0 -19946-4 0  9990
2 60377  53.1596  83.7376 0001032  79.4783 280.6334 15.30200954 62476
STARLINK-11228 [DTC]    
1 60398U 24141A   25249.37304380  .00000277  00000+0  71528-5 0  9991
2 60398  53.1583 274.8965 0001552  65.2637 294.8542 15.69713010 62742
STARLINK-11182 [DTC]    
1 60399U 24141B   25249.48565636  .00003754  00000+0  35827-4 0  9991
2 60399  53.1593 274.1721 0001467  77.1259 282.9923 15.69714294 62818
